[{"OBJECT_NAME":"ONEWEB-0629","OBJECT_ID":"2023-004AG","EPOCH":"2026-05-14T02:15:30.417984","MEAN_MOTION":13.17648509,"ECCENTRICITY":0.0002153,"INCLINATION":87.9162,"RA_OF_ASC_NODE":12.6492,"ARG_OF_PERICENTER":83.7893,"MEAN_ANOMALY":276.3484,"EPHEMERIS_TYPE":0,"CLASSIFICATION_TYPE":"U","NORAD_CAT_ID":55170,"ELEMENT_SET_NO":999,"REV_AT_EPOCH":16309,"BSTAR":8.1585e-05,"MEAN_MOTION_DOT":4.5e-07,"MEAN_MOTION_DDOT":0.0},{"OBJECT_NAME":"ONEWEB-0631","OBJECT_ID":"2023-004AH","EPOCH":"2026-05-14T02:36:42.213888","MEAN_MOTION":13.18687162,"ECCENTRICITY":0.0001433,"INCLINATION":87.9178,"RA_OF_ASC_NODE":342.2168,"ARG_OF_PERICENTER":99.0354,"MEAN_ANOMALY":261.0941,"EPHEMERIS_TYPE":0,"CLASSIFICATION_TYPE":"U","NORAD_CAT_ID":55171,"ELEMENT_SET_NO":999,"REV_AT_EPOCH":16518,"BSTAR":0.00010991,"MEAN_MOTION_DOT":5.6e-07,"MEAN_MOTION_DDOT":0.0},{"OBJECT_NAME":"ONEWEB-0709","OBJECT_ID":"2023-004AJ","EPOCH":"2026-05-14T06:03:17.017920","MEAN_MOTION":13.11414518,"ECCENTRICITY":0.000106,"INCLINATION":87.8915,"RA_OF_ASC_NODE":27.83,"ARG_OF_PERICENTER":60.9021,"MEAN_ANOMALY":299.2213,"EPHEMERIS_TYPE":0,"CLASSIFICATION_TYPE":"U","NORAD_CAT_ID":55172,"ELEMENT_SET_NO":999,"REV_AT_EPOCH":16142,"BSTAR":-0.00012845,"MEAN_MOTION_DOT":-3.3e-07,"MEAN_MOTION_DDOT":0.0},{"OBJECT_NAME":"ONEWEB-0710","OBJECT_ID":"2023-004AK","EPOCH":"2026-05-14T02:36:09.763776","MEAN_MOTION":13.17648754,"ECCENTRICITY":0.000182,"INCLINATION":87.9161,"RA_OF_ASC_NODE":12.6415,"ARG_OF_PERICENTER":87.6735,"MEAN_ANOMALY":272.4605,"EPHEMERIS_TYPE":0,"CLASSIFICATION_TYPE":"U","NORAD_CAT_ID":55173,"ELEMENT_SET_NO":999,"REV_AT_EPOCH":16309,"BSTAR":-6.9934e-05,"MEAN_MOTION_DOT":-1.4e-07,"MEAN_MOTION_DDOT":0.0},{"OBJECT_NAME":"ONEWEB-0711","OBJECT_ID":"2023-004AL","EPOCH":"2026-05-14T05:21:47.744064","MEAN_MOTION":13.11416513,"ECCENTRICITY":0.000209,"INCLINATION":87.8918,"RA_OF_ASC_NODE":27.8219,"ARG_OF_PERICENTER":101.0938,"MEAN_ANOMALY":259.0425,"EPHEMERIS_TYPE":0,"CLASSIFICATION_TYPE":"U","NORAD_CAT_ID":55174,"ELEMENT_SET_NO":999,"REV_AT_EPOCH":16138,"BSTAR":0.001397,"MEAN_MOTION_DOT":5.08e-06,"MEAN_MOTION_DDOT":0.0},{"OBJECT_NAME":"ONEWEB-0713","OBJECT_ID":"2023-004AM","EPOCH":"2026-05-14T05:48:37.931616","MEAN_MOTION":13.11414118,"ECCENTRICITY":0.0001912,"INCLINATION":87.8924,"RA_OF_ASC_NODE":27.8191,"ARG_OF_PERICENTER":93.7212,"MEAN_ANOMALY":266.4135,"EPHEMERIS_TYPE":0,"CLASSIFICATION_TYPE":"U","NORAD_CAT_ID":55175,"ELEMENT_SET_NO":999,"REV_AT_EPOCH":16137,"BSTAR":0.0010049,"MEAN_MOTION_DOT":3.69e-06,"MEAN_MOTION_DDOT":0.0},{"OBJECT_NAME":"ONEWEB-0715","OBJECT_ID":"2023-004AN","EPOCH":"2026-05-14T05:41:18.608352","MEAN_MOTION":13.11414841,"ECCENTRICITY":0.0001113,"INCLINATION":87.8926,"RA_OF_ASC_NODE":27.8211,"ARG_OF_PERICENTER":82.9989,"MEAN_ANOMALY":277.1265,"EPHEMERIS_TYPE":0,"CLASSIFICATION_TYPE":"U","NORAD_CAT_ID":55176,"ELEMENT_SET_NO":999,"REV_AT_EPOCH":16141,"BSTAR":0.0014424000000000001,"MEAN_MOTION_DOT":5.24e-06,"MEAN_MOTION_DDOT":0.0},{"OBJECT_NAME":"ONEWEB-0716","OBJECT_ID":"2023-004AP","EPOCH":"2026-05-14T02:26:26.543904","MEAN_MOTION":13.17648255,"ECCENTRICITY":0.0001942,"INCLINATION":87.9165,"RA_OF_ASC_NODE":12.6448,"ARG_OF_PERICENTER":76.0798,"MEAN_ANOMALY":284.0549,"EPHEMERIS_TYPE":0,"CLASSIFICATION_TYPE":"U","NORAD_CAT_ID":55177,"ELEMENT_SET_NO":999,"REV_AT_EPOCH":16309,"BSTAR":4.4958e-05,"MEAN_MOTION_DOT":3e-07,"MEAN_MOTION_DDOT":0.0},{"OBJECT_NAME":"ONEWEB-0717","OBJECT_ID":"2023-004AQ","EPOCH":"2026-05-14T03:51:29.061792","MEAN_MOTION":13.17650038,"ECCENTRICITY":0.0001951,"INCLINATION":87.9176,"RA_OF_ASC_NODE":12.6178,"ARG_OF_PERICENTER":103.0519,"MEAN_ANOMALY":257.0831,"EPHEMERIS_TYPE":0,"CLASSIFICATION_TYPE":"U","NORAD_CAT_ID":55178,"ELEMENT_SET_NO":999,"REV_AT_EPOCH":16315,"BSTAR":0.00010127,"MEAN_MOTION_DOT":5.2e-07,"MEAN_MOTION_DDOT":0.0},{"OBJECT_NAME":"ONEWEB-0719","OBJECT_ID":"2023-004AR","EPOCH":"2026-05-14T02:16:43.367232","MEAN_MOTION":13.17648051,"ECCENTRICITY":0.0001996,"INCLINATION":87.9172,"RA_OF_ASC_NODE":12.6118,"ARG_OF_PERICENTER":79.9017,"MEAN_ANOMALY":280.234,"EPHEMERIS_TYPE":0,"CLASSIFICATION_TYPE":"U","NORAD_CAT_ID":55179,"ELEMENT_SET_NO":999,"REV_AT_EPOCH":16309,"BSTAR":5.5357000000000005e-05,"MEAN_MOTION_DOT":3.4e-07,"MEAN_MOTION_DDOT":0.0},{"OBJECT_NAME":"ONEWEB-0530","OBJECT_ID":"2023-029A","EPOCH":"2026-05-13T20:21:08.438976","MEAN_MOTION":13.20841188,"ECCENTRICITY":0.0002217,"INCLINATION":87.9151,"RA_OF_ASC_NODE":281.3214,"ARG_OF_PERICENTER":106.5381,"MEAN_ANOMALY":253.5996,"EPHEMERIS_TYPE":0,"CLASSIFICATION_TYPE":"U","NORAD_CAT_ID":55796,"ELEMENT_SET_NO":999,"REV_AT_EPOCH":15661,"BSTAR":1.4169000000000001e-05,"MEAN_MOTION_DOT":1.9e-07,"MEAN_MOTION_DDOT":0.0},{"OBJECT_NAME":"ONEWEB-0534","OBJECT_ID":"2023-029B","EPOCH":"2026-05-13T20:03:48.388608","MEAN_MOTION":13.20728878,"ECCENTRICITY":0.0001893,"INCLINATION":87.915,"RA_OF_ASC_NODE":281.3235,"ARG_OF_PERICENTER":94.3808,"MEAN_ANOMALY":265.7541,"EPHEMERIS_TYPE":0,"CLASSIFICATION_TYPE":"U","NORAD_CAT_ID":55797,"ELEMENT_SET_NO":999,"REV_AT_EPOCH":15661,"BSTAR":2.4751e-05,"MEAN_MOTION_DOT":2.3e-07,"MEAN_MOTION_DDOT":0.0},{"OBJECT_NAME":"ONEWEB-0556","OBJECT_ID":"2023-029C","EPOCH":"2026-05-13T11:07:51.391200","MEAN_MOTION":13.20672268,"ECCENTRICITY":0.0002658,"INCLINATION":87.9149,"RA_OF_ASC_NODE":281.3984,"ARG_OF_PERICENTER":88.2762,"MEAN_ANOMALY":271.8676,"EPHEMERIS_TYPE":0,"CLASSIFICATION_TYPE":"U","NORAD_CAT_ID":55798,"ELEMENT_SET_NO":999,"REV_AT_EPOCH":15656,"BSTAR":-4.3591e-05,"MEAN_MOTION_DOT":-5e-08,"MEAN_MOTION_DDOT":0.0},{"OBJECT_NAME":"ONEWEB-0562","OBJECT_ID":"2023-029D","EPOCH":"2026-05-13T10:48:52.161408","MEAN_MOTION":13.20783029,"ECCENTRICITY":0.0002757,"INCLINATION":87.9148,"RA_OF_ASC_NODE":281.3815,"ARG_OF_PERICENTER":103.666,"MEAN_ANOMALY":256.4781,"EPHEMERIS_TYPE":0,"CLASSIFICATION_TYPE":"U","NORAD_CAT_ID":55799,"ELEMENT_SET_NO":999,"REV_AT_EPOCH":15656,"BSTAR":7.524300000000001e-05,"MEAN_MOTION_DOT":4.4e-07,"MEAN_MOTION_DDOT":0.0},{"OBJECT_NAME":"ONEWEB-0563","OBJECT_ID":"2023-029E","EPOCH":"2026-05-13T23:24:42.177888","MEAN_MOTION":13.20619815,"ECCENTRICITY":0.000193,"INCLINATION":87.9148,"RA_OF_ASC_NODE":281.3071,"ARG_OF_PERICENTER":91.3223,"MEAN_ANOMALY":268.8131,"EPHEMERIS_TYPE":0,"CLASSIFICATION_TYPE":"U","NORAD_CAT_ID":55800,"ELEMENT_SET_NO":999,"REV_AT_EPOCH":15662,"BSTAR":0.00073649,"MEAN_MOTION_DOT":3.12e-06,"MEAN_MOTION_DDOT":0.0},{"OBJECT_NAME":"ONEWEB-0564","OBJECT_ID":"2023-029F","EPOCH":"2026-05-13T08:42:23.245056","MEAN_MOTION":13.20636166,"ECCENTRICITY":0.0002229,"INCLINATION":87.915,"RA_OF_ASC_NODE":281.4024,"ARG_OF_PERICENTER":101.6935,"MEAN_ANOMALY":258.4448,"EPHEMERIS_TYPE":0,"CLASSIFICATION_TYPE":"U","NORAD_CAT_ID":55801,"ELEMENT_SET_NO":999,"REV_AT_EPOCH":15655,"BSTAR":-0.012803000000000002,"MEAN_MOTION_DOT":-5.179e-05,"MEAN_MOTION_DDOT":0.0},{"OBJECT_NAME":"ONEWEB-0638","OBJECT_ID":"2023-029G","EPOCH":"2026-05-13T23:42:28.118880","MEAN_MOTION":13.14503879,"ECCENTRICITY":0.0002374,"INCLINATION":87.8923,"RA_OF_ASC_NODE":296.5778,"ARG_OF_PERICENTER":91.6098,"MEAN_ANOMALY":268.5304,"EPHEMERIS_TYPE":0,"CLASSIFICATION_TYPE":"U","NORAD_CAT_ID":55802,"ELEMENT_SET_NO":999,"REV_AT_EPOCH":15490,"BSTAR":0.00038221,"MEAN_MOTION_DOT":1.55e-06,"MEAN_MOTION_DDOT":0.0},{"OBJECT_NAME":"ONEWEB-0639","OBJECT_ID":"2023-029H","EPOCH":"2026-05-13T23:45:52.134336","MEAN_MOTION":13.19725525,"ECCENTRICITY":0.0001581,"INCLINATION":87.9143,"RA_OF_ASC_NODE":311.7955,"ARG_OF_PERICENTER":58.7641,"MEAN_ANOMALY":301.3647,"EPHEMERIS_TYPE":0,"CLASSIFICATION_TYPE":"U","NORAD_CAT_ID":55803,"ELEMENT_SET_NO":999,"REV_AT_EPOCH":15439,"BSTAR":3.9751e-05,"MEAN_MOTION_DOT":2.9e-07,"MEAN_MOTION_DDOT":0.0},{"OBJECT_NAME":"ONEWEB-0640","OBJECT_ID":"2023-029J","EPOCH":"2026-05-13T23:56:10.306464","MEAN_MOTION":13.14503817,"ECCENTRICITY":0.0002347,"INCLINATION":87.8925,"RA_OF_ASC_NODE":296.5668,"ARG_OF_PERICENTER":81.9157,"MEAN_ANOMALY":278.2239,"EPHEMERIS_TYPE":0,"CLASSIFICATION_TYPE":"U","NORAD_CAT_ID":55804,"ELEMENT_SET_NO":999,"REV_AT_EPOCH":15492,"BSTAR":-4.847e-05,"MEAN_MOTION_DOT":-5e-08,"MEAN_MOTION_DDOT":0.0},{"OBJECT_NAME":"ONEWEB-0641","OBJECT_ID":"2023-029K","EPOCH":"2026-05-13T23:39:02.174112","MEAN_MOTION":13.19725981,"ECCENTRICITY":0.00017,"INCLINATION":87.9149,"RA_OF_ASC_NODE":311.7837,"ARG_OF_PERICENTER":86.8847,"MEAN_ANOMALY":273.248,"EPHEMERIS_TYPE":0,"CLASSIFICATION_TYPE":"U","NORAD_CAT_ID":55805,"ELEMENT_SET_NO":999,"REV_AT_EPOCH":15440,"BSTAR":0.00016689000000000002,"MEAN_MOTION_DOT":8e-07,"MEAN_MOTION_DDOT":0.0},{"OBJECT_NAME":"ONEWEB-0642","OBJECT_ID":"2023-029L","EPOCH":"2026-05-14T01:21:22.853664","MEAN_MOTION":13.19725035,"ECCENTRICITY":0.0001334,"INCLINATION":87.9145,"RA_OF_ASC_NODE":311.783,"ARG_OF_PERICENTER":65.4963,"MEAN_ANOMALY":294.6308,"EPHEMERIS_TYPE":0,"CLASSIFICATION_TYPE":"U","NORAD_CAT_ID":55806,"ELEMENT_SET_NO":999,"REV_AT_EPOCH":15440,"BSTAR":0.00015934,"MEAN_MOTION_DOT":7.7e-07,"MEAN_MOTION_DDOT":0.0},{"OBJECT_NAME":"ONEWEB-0643","OBJECT_ID":"2023-029M","EPOCH":"2026-05-13T10:25:31.971648","MEAN_MOTION":13.14503538,"ECCENTRICITY":0.0001183,"INCLINATION":87.8922,"RA_OF_ASC_NODE":296.6663,"ARG_OF_PERICENTER":83.0998,"MEAN_ANOMALY":277.0266,"EPHEMERIS_TYPE":0,"CLASSIFICATION_TYPE":"U","NORAD_CAT_ID":55807,"ELEMENT_SET_NO":999,"REV_AT_EPOCH":15482,"BSTAR":0.00047657,"MEAN_MOTION_DOT":1.89e-06,"MEAN_MOTION_DDOT":0.0},{"OBJECT_NAME":"ONEWEB-0644","OBJECT_ID":"2023-029N","EPOCH":"2026-05-14T01:14:33.263232","MEAN_MOTION":13.19725887,"ECCENTRICITY":0.0001553,"INCLINATION":87.9144,"RA_OF_ASC_NODE":311.7859,"ARG_OF_PERICENTER":83.0075,"MEAN_ANOMALY":277.1235,"EPHEMERIS_TYPE":0,"CLASSIFICATION_TYPE":"U","NORAD_CAT_ID":55808,"ELEMENT_SET_NO":999,"REV_AT_EPOCH":15440,"BSTAR":3.7143e-05,"MEAN_MOTION_DOT":2.8e-07,"MEAN_MOTION_DDOT":0.0}]